{
  "type": "FeatureCollection",
  "features": [
    {
      "type": "Feature",
      "properties": {
        "norad_id": 15362,
        "name": "NOVA 3",
        "group": "nnss",
        "lat": -19.358675225085914,
        "lon": -99.5113063178051,
        "alt_km": 1194.0244511063538,
        "timestamp": "2025-12-12T11:38:31.680540+00:00",
        "meta_object_name": "NOVA 3",
        "meta_object_id": "1984-110A",
        "meta_epoch": "2025-12-11T20:42:38.702016",
        "meta_mean_motion": 13.23044467,
        "meta_eccentricity": 0.0030559,
        "meta_inclination": 90.1224,
        "meta_ra_of_asc_node": 80.5244,
        "meta_arg_of_pericenter": 334.4175,
        "meta_mean_anomaly": 143.5683,
        "meta_ephemeris_type": 0,
        "meta_classification_type": "U",
        "meta_norad_cat_id": 15362,
        "meta_element_set_no": 999,
        "meta_rev_at_epoch": 98687,
        "meta_bstar": 0.00025406,
        "meta_mean_motion_dot": 1.15e-06,
        "meta_mean_motion_ddot": 0,
        "tle_line1": "1 15362U 84110A   25345.86294794  .00000115  00000+0  25406-3 0  9995",
        "tle_line2": "2 15362  90.1224  80.5244 0030559 334.4175 143.5683 13.23044467986871"
      },
      "geometry": {
        "type": "Point",
        "coordinates": [
          -99.5113063178051,
          -19.358675225085914
        ]
      }
    },
    {
      "type": "Feature",
      "properties": {
        "norad_id": 15935,
        "name": "OSCAR 30",
        "group": "nnss",
        "lat": -88.21688434568347,
        "lon": -85.46489491764265,
        "alt_km": 1258.271680754875,
        "timestamp": "2025-12-12T11:38:31.680550+00:00",
        "meta_object_name": "OSCAR 30",
        "meta_object_id": "1985-066A",
        "meta_epoch": "2025-12-11T20:30:00.567072",
        "meta_mean_motion": 13.36078238,
        "meta_eccentricity": 0.01694171,
        "meta_inclination": 90.1649,
        "meta_ra_of_asc_node": 99.8325,
        "meta_arg_of_pericenter": 86.3773,
        "meta_mean_anomaly": 29.1188,
        "meta_ephemeris_type": 0,
        "meta_classification_type": "U",
        "meta_norad_cat_id": 15935,
        "meta_element_set_no": 999,
        "meta_rev_at_epoch": 96441,
        "meta_bstar": 0.00025191195,
        "meta_mean_motion_dot": 1.5e-06,
        "meta_mean_motion_ddot": 0,
        "tle_line1": "1 15935U 85066A   25345.85417323  .00000150  00000+0  25191-3 0  9996",
        "tle_line2": "2 15935  90.1649  99.8325 0169417  86.3773  29.1188 13.36078238964416"
      },
      "geometry": {
        "type": "Point",
        "coordinates": [
          -85.46489491764265,
          -88.21688434568347
        ]
      }
    },
    {
      "type": "Feature",
      "properties": {
        "norad_id": 15936,
        "name": "OSCAR 24",
        "group": "nnss",
        "lat": -18.150013356769087,
        "lon": 92.35960382358819,
        "alt_km": 1169.2803226472033,
        "timestamp": "2025-12-12T11:38:31.680561+00:00",
        "meta_object_name": "OSCAR 24",
        "meta_object_id": "1985-066B",
        "meta_epoch": "2025-12-11T20:07:33.897792",
        "meta_mean_motion": 13.3593562,
        "meta_eccentricity": 0.01704913,
        "meta_inclination": 90.179,
        "meta_ra_of_asc_node": 92.2895,
        "meta_arg_of_pericenter": 92.8556,
        "meta_mean_anomaly": 23.5178,
        "meta_ephemeris_type": 0,
        "meta_classification_type": "U",
        "meta_norad_cat_id": 15936,
        "meta_element_set_no": 999,
        "meta_rev_at_epoch": 96631,
        "meta_bstar": 0.00019952055,
        "meta_mean_motion_dot": 1.21e-06,
        "meta_mean_motion_ddot": 0,
        "tle_line1": "1 15936U 85066B   25345.83858678  .00000121  00000+0  19952-3 0  9993",
        "tle_line2": "2 15936  90.1790  92.2895 0170491  92.8556  23.5178 13.35935620966312"
      },
      "geometry": {
        "type": "Point",
        "coordinates": [
          92.35960382358819,
          -18.150013356769087
        ]
      }
    },
    {
      "type": "Feature",
      "properties": {
        "norad_id": 17070,
        "name": "POLAR BEAR",
        "group": "nnss",
        "lat": 35.86015272779998,
        "lon": 3.5071368371548854,
        "alt_km": 950.8409015989782,
        "timestamp": "2025-12-12T11:38:31.680571+00:00",
        "meta_object_name": "POLAR BEAR",
        "meta_object_id": "1986-088A",
        "meta_epoch": "2025-12-12T02:47:54.957120",
        "meta_mean_motion": 13.75250552,
        "meta_eccentricity": 0.0040938,
        "meta_inclination": 89.6174,
        "meta_ra_of_asc_node": 183.7987,
        "meta_arg_of_pericenter": 121.0427,
        "meta_mean_anomaly": 359.6166,
        "meta_ephemeris_type": 0,
        "meta_classification_type": "U",
        "meta_norad_cat_id": 17070,
        "meta_element_set_no": 999,
        "meta_rev_at_epoch": 95970,
        "meta_bstar": 0.00014214,
        "meta_mean_motion_dot": 1.49e-06,
        "meta_mean_motion_ddot": 0,
        "tle_line1": "1 17070U 86088A   25346.11660830  .00000149  00000+0  14214-3 0  9998",
        "tle_line2": "2 17070  89.6174 183.7987 0040938 121.0427 359.6166 13.75250552959707"
      },
      "geometry": {
        "type": "Point",
        "coordinates": [
          3.5071368371548854,
          35.86015272779998
        ]
      }
    },
    {
      "type": "Feature",
      "properties": {
        "norad_id": 18361,
        "name": "OSCAR 27",
        "group": "nnss",
        "lat": 68.55655896643694,
        "lon": 78.30952702327431,
        "alt_km": 1154.5237940314828,
        "timestamp": "2025-12-12T11:38:31.680582+00:00",
        "meta_object_name": "OSCAR 27",
        "meta_object_id": "1987-080A",
        "meta_epoch": "2025-12-12T04:09:13.012992",
        "meta_mean_motion": 13.4490658,
        "meta_eccentricity": 0.010286,
        "meta_inclination": 90.3742,
        "meta_ra_of_asc_node": 79.2512,
        "meta_arg_of_pericenter": 225.4315,
        "meta_mean_anomaly": 133.8402,
        "meta_ephemeris_type": 0,
        "meta_classification_type": "U",
        "meta_norad_cat_id": 18361,
        "meta_element_set_no": 999,
        "meta_rev_at_epoch": 87549,
        "meta_bstar": 0.00024964,
        "meta_mean_motion_dot": 1.59e-06,
        "meta_mean_motion_ddot": 0,
        "tle_line1": "1 18361U 87080A   25346.17306728  .00000159  00000+0  24964-3 0  9998",
        "tle_line2": "2 18361  90.3742  79.2512 0102860 225.4315 133.8402 13.44906580875495"
      },
      "geometry": {
        "type": "Point",
        "coordinates": [
          78.30952702327431,
          68.55655896643694
        ]
      }
    },
    {
      "type": "Feature",
      "properties": {
        "norad_id": 18362,
        "name": "OSCAR 29",
        "group": "nnss",
        "lat": 81.39208340690521,
        "lon": 77.24018652993847,
        "alt_km": 1160.8626195579736,
        "timestamp": "2025-12-12T11:38:31.680592+00:00",
        "meta_object_name": "OSCAR 29",
        "meta_object_id": "1987-080B",
        "meta_epoch": "2025-12-12T04:24:07.767936",
        "meta_mean_motion": 13.44448317,
        "meta_eccentricity": 0.0103887,
        "meta_inclination": 90.3753,
        "meta_ra_of_asc_node": 79.7104,
        "meta_arg_of_pericenter": 248.7755,
        "meta_mean_anomaly": 173.7178,
        "meta_ephemeris_type": 0,
        "meta_classification_type": "U",
        "meta_norad_cat_id": 18362,
        "meta_element_set_no": 999,
        "meta_rev_at_epoch": 87502,
        "meta_bstar": 0.00022748,
        "meta_mean_motion_dot": 1.44e-06,
        "meta_mean_motion_ddot": 0,
        "tle_line1": "1 18362U 87080B   25346.18342324  .00000144  00000+0  22748-3 0  9994",
        "tle_line2": "2 18362  90.3753  79.7104 0103887 248.7755 173.7178 13.44448317875027"
      },
      "geometry": {
        "type": "Point",
        "coordinates": [
          77.24018652993847,
          81.39208340690521
        ]
      }
    },
    {
      "type": "Feature",
      "properties": {
        "norad_id": 19070,
        "name": "OSCAR 23",
        "group": "nnss",
        "lat": -54.114062949272906,
        "lon": -164.0595077403875,
        "alt_km": 1075.3719642060178,
        "timestamp": "2025-12-12T11:38:31.680602+00:00",
        "meta_object_name": "OSCAR 23",
        "meta_object_id": "1988-033A",
        "meta_epoch": "2025-12-12T03:35:59.447040",
        "meta_mean_motion": 13.27787071,
        "meta_eccentricity": 0.0189488,
        "meta_inclination": 90.3213,
        "meta_ra_of_asc_node": 16.3744,
        "meta_arg_of_pericenter": 181.559,
        "meta_mean_anomaly": 249.9206,
        "meta_ephemeris_type": 0,
        "meta_classification_type": "U",
        "meta_norad_cat_id": 19070,
        "meta_element_set_no": 999,
        "meta_rev_at_epoch": 82245,
        "meta_bstar": 0.0001938,
        "meta_mean_motion_dot": 1.05e-06,
        "meta_mean_motion_ddot": 0,
        "tle_line1": "1 19070U 88033A   25346.14999360  .00000105  00000+0  19380-3 0  9999",
        "tle_line2": "2 19070  90.3213  16.3744 0189488 181.5590 249.9206 13.27787071822455"
      },
      "geometry": {
        "type": "Point",
        "coordinates": [
          -164.0595077403875,
          -54.114062949272906
        ]
      }
    }
  ]
}